     2.100          NAVIGATION                              RINEX VERSION / TYPE
fic2rin                                 12/11/2012 00:10:38 PGM / RUN BY / DATE
                                                            END OF HEADER
 9 12 12 11  0  0  0.0  .205736141652D-03  .261479726760D-11  .000000000000D+00
     .350000000000D+02 -.795000000000D+02  .433196615806D-08 -.168086595539D-01
    -.415183603764D-05  .170591074275D-01  .230781733990D-05  .515284349823D+04
     .172800000000D+06 -.225380063057D-06 -.160437330301D+01 -.465661287308D-07
     .984215505143D+00  .347687500000D+03  .163370911441D+01 -.857035698977D-08
    -.285011871888D-09  .100000000000D+01  .171800000000D+04  .000000000000D+00
     .240000000000D+01  .000000000000D+00 -.558793544769D-08  .350000000000D+02
     .165606000000D+06  .400000000000D+01
10 12 12 11  0  0  0.0 -.617043115199D-04 -.147792889038D-11  .000000000000D+00
     .600000000000D+02  .691250000000D+02  .455947563475D-08 -.213616240639D+01
     .329315662384D-05  .121164441807D-01  .128913670778D-04  .515375252724D+04
     .172800000000D+06  .102445483208D-06  .260933572218D+01 -.113621354103D-06
     .944734356869D+00  .118531250000D+03  .779212502494D+00 -.780818238499D-08
    -.156077929844D-09  .100000000000D+01  .171800000000D+04  .000000000000D+00
     .240000000000D+01  .000000000000D+00 -.279396772385D-08  .600000000000D+02
     .165606000000D+06  .400000000000D+01
13 12 12 11  0  0  0.0  .161106698215D-03 -.272848410532D-11  .000000000000D+00
     .360000000000D+02  .120812500000D+03  .433518057767D-08  .275740793359D+01
     .633671879768D-05  .481641630176D-02  .292249023914D-05  .515358462143D+04
     .172800000000D+06  .109896063805D-06 -.254892142602D+01  .745058059692D-08
     .983720133286D+00  .335156250000D+03  .206935946799D+01 -.822819988041D-08
     .298583865788D-09  .100000000000D+01  .171800000000D+04  .000000000000D+00
     .240000000000D+01  .000000000000D+00 -.111758708954D-07  .360000000000D+02
     .165606000000D+06  .400000000000D+01
14 12 12 11  0  0  0.0  .218077562749D-03  .568434188608D-12  .000000000000D+00
     .123000000000D+03  .114000000000D+03  .434518099423D-08  .293470941061D+01
     .592693686485D-05  .677645485848D-02  .264495611191D-05  .515368305397D+04
     .172800000000D+06  .782310962677D-07 -.257699394621D+01 -.106170773506D-06
     .976486022402D+00  .334093750000D+03 -.201593196764D+01 -.811105214359D-08
     .213580325049D-09  .100000000000D+01  .171800000000D+04  .000000000000D+00
     .340000000000D+01  .000000000000D+00 -.884756445885D-08  .123000000000D+03
     .165606000000D+06  .400000000000D+01
15 12 12 11  0  0  0.0 -.101875513792D-03 -.102318153949D-11  .000000000000D+00
     .440000000000D+02  .133468750000D+03  .508806908136D-08  .251506816310D+01
     .700540840626D-05  .508540694136D-02  .412948429585D-05  .515368632507D+04
     .172800000000D+06 -.171363353729D-06 -.267130728292D+01  .856816768646D-07
     .943250677057D+00  .290625000000D+03  .759910455606D-01 -.847678166341D-08
     .304298389535D-09  .100000000000D+01  .171800000000D+04  .000000000000D+00
     .240000000000D+01  .000000000000D+00 -.102445483208D-07  .440000000000D+02
     .165606000000D+06  .400000000000D+01
16 12 12 11  0  0  0.0 -.250660348684D-03 -.454747350886D-12  .000000000000D+00
     .240000000000D+02 -.883437500000D+02  .358943522867D-08 -.220489602069D+01
    -.462867319584D-05  .670441135298D-02  .129081308842D-04  .515355267143D+04
     .172800000000D+06 -.651925802231D-07 -.503935780982D+00 -.242143869400D-07
     .983242873818D+00  .143031250000D+03  .279255247188D-01 -.751709883162D-08
     .249653256203D-09  .100000000000D+01  .171800000000D+04  .000000000000D+00
     .240000000000D+01  .000000000000D+00 -.977888703346D-08  .240000000000D+02
     .165606000000D+06  .400000000000D+01
17 12 12 11  0  0  0.0  .705593265593D-04 -.363797880709D-11  .000000000000D+00
     .320000000000D+02  .165625000000D+02  .449554440033D-08 -.312454603724D+01
     .881031155586D-06  .785131589510D-02  .806152820587D-05  .515376347923D+04
     .172800000000D+06  .149011611938D-07  .534090463697D+00 -.106170773506D-06
     .964280848591D+00  .224250000000D+03 -.228078976611D+01 -.779496754883D-08
     .658241704123D-09  .100000000000D+01  .171800000000D+04  .000000000000D+00
     .240000000000D+01  .000000000000D+00 -.107102096081D-07  .320000000000D+02
     .165606000000D+06  .400000000000D+01
18 12 12 11  0  0  0.0  .228787306696D-03  .181898940355D-11  .000000000000D+00
     .990000000000D+02  .711875000000D+02  .495734935064D-08 -.165175442981D+01
     .372342765331D-05  .136134898057D-01  .114254653454D-04  .515375699425D+04
     .172800000000D+06  .311061739922D-06  .259509694155D+01  .335276126862D-07
     .928507697330D+00  .139125000000D+03 -.213373095023D+01 -.798997567170D-08
    -.215723271454D-09  .100000000000D+01  .171800000000D+04  .000000000000D+00
     .240000000000D+01  .000000000000D+00 -.107102096081D-07  .990000000000D+02
     .165606000000D+06  .400000000000D+01
19 12 12 11  0  0  0.0 -.329813919961D-03 -.329691829393D-11  .000000000000D+00
     .420000000000D+02  .217812500000D+02  .477377027526D-08  .240136130469D+01
     .113248825073D-05  .871089519933D-02  .713951885700D-05  .515363654327D+04
     .172800000000D+06 -.137835741043D-06  .586519029455D+00  .149011611938D-07
     .961526859956D+00  .242406250000D+03  .274438024725D+00 -.804283501636D-08
     .555023118941D-09  .100000000000D+01  .171800000000D+04  .000000000000D+00
     .240000000000D+01  .000000000000D+00 -.144354999065D-07  .420000000000D+02
     .165606000000D+06  .400000000000D+01
20 12 12 11  0  0  0.0  .760508701205D-04  .125055521494D-11  .000000000000D+00
     .650000000000D+02  .718125000000D+02  .505521056981D-08 -.110920921687D+01
     .379793345928D-05  .536777882371D-02  .126045197248D-04  .515358687401D+04
     .172800000000D+06 -.372529029846D-08  .254152709342D+01  .838190317154D-07
     .929087993044D+00  .122843750000D+03  .127467576124D+01 -.819605568433D-08
    -.331085219600D-09  .100000000000D+01  .171800000000D+04  .000000000000D+00
     .240000000000D+01  .000000000000D+00 -.791624188423D-08  .650000000000D+02
     .165606000000D+06  .400000000000D+01
22 12 12 11  0  0  0.0  .153113156557D-03  .102318153949D-11  .000000000000D+00
     .440000000000D+02  .787500000000D+02  .504378152232D-08 -.234876923004D+01
     .394880771637D-05  .615794968326D-02  .115074217319D-04  .515367214775D+04
     .172800000000D+06  .931322574615D-07  .259805823007D+01 -.372529029846D-08
     .926245579789D+00  .138062500000D+03 -.201714278250D+01 -.803962059675D-08
    -.221794952936D-09  .100000000000D+01  .171800000000D+04  .000000000000D+00
     .240000000000D+01  .000000000000D+00 -.172294676304D-07  .440000000000D+02
     .165606000000D+06  .400000000000D+01
23 12 12 11  0  0  0.0  .135332811624D-03 -.386535248253D-11  .000000000000D+00
     .340000000000D+02  .138500000000D+03  .492199073496D-08  .200689585035D+01
     .718794763088D-05  .811010098550D-02  .350177288055D-05  .515378100014D+04
     .172800000000D+06 -.117346644402D-06 -.263266005208D+01  .124797224998D-06
     .958077506860D+00  .313250000000D+03 -.291703067321D+01 -.853071248127D-08
     .284654714154D-09  .100000000000D+01  .171800000000D+04  .000000000000D+00
     .240000000000D+01  .000000000000D+00 -.204890966415D-07  .340000000000D+02
     .165606000000D+06  .400000000000D+01
25 12 12 11  0  0  0.0  .557475723326D-04  .216004991671D-11  .000000000000D+00
     .280000000000D+02 -.985312500000D+02  .394409285873D-08 -.954431917932D+00
    -.527128577232D-05  .187393487431D-02  .116229057312D-04  .515362697411D+04
     .172800000000D+06  .707805156708D-07 -.558551005503D+00  .204890966415D-07
     .971303373244D+00  .162843750000D+03  .639754717838D+00 -.773353641855D-08
     .214294640518D-11  .100000000000D+01  .171800000000D+04  .000000000000D+00
     .240000000000D+01  .000000000000D+00  .512227416039D-08  .280000000000D+02
     .165606000000D+06  .400000000000D+01
26 12 12 11  0  0  0.0 -.179403461516D-03  .135287336889D-10  .000000000000D+00
     .230000000000D+02  .121406250000D+03  .433910931275D-08  .186886337654D+01
     .586174428463D-05  .209209939931D-01  .410340726376D-05  .515365582466D+04
     .172800000000D+06 -.163912773132D-06 -.255568208249D+01 -.476837158203D-06
     .981217112637D+00  .308031250000D+03  .121192181727D+01 -.806176437627D-08
     .317156067966D-09  .100000000000D+01  .171800000000D+04  .000000000000D+00
     .240000000000D+01  .000000000000D+00 -.605359673500D-08  .230000000000D+02
     .165606000000D+06  .400000000000D+01
27 12 12 11  0  0  0.0 -.205973163247D-03  .341060513165D-11  .000000000000D+00
     .360000000000D+02 -.950312500000D+02  .498377902297D-08 -.230650086734D+01
    -.490248203278D-05  .562942854594D-02  .122413039207D-04  .515361844444D+04
     .172800000000D+06 -.540167093277D-07 -.542723434404D+00 -.614672899246D-07
     .976182051432D+00  .151500000000D+03  .862747714185D+00 -.749959810265D-08
     .149649090628D-09  .100000000000D+01  .171800000000D+04  .000000000000D+00
     .240000000000D+01  .630000000000D+02 -.190921127796D-07  .360000000000D+02
     .165606000000D+06  .400000000000D+01
28 12 12 11  0  0  0.0  .212765298784D-03  .352429196937D-11  .000000000000D+00
     .590000000000D+02 -.112187500000D+03  .348550232802D-08 -.240858906797D+01
    -.574998557568D-05  .184910256648D-01  .121705234051D-04  .515364259338D+04
     .172800000000D+06  .230967998505D-06 -.497474191785D+00 -.204890966415D-07
     .981654260354D+00  .151468750000D+03 -.180725905066D+01 -.717529888000D-08
     .232509684962D-09  .100000000000D+01  .171800000000D+04  .000000000000D+00
     .240000000000D+01  .000000000000D+00 -.107102096081D-07  .590000000000D+02
     .165606000000D+06  .400000000000D+01
